{
  "type": "FeatureCollection",
  "features": [
    {
      "type": "Feature",
      "properties": {
        "norad_id": 33886,
        "name": "IRIDIUM 33 DEB",
        "group": "iridium-33-debris",
        "lat": 43.78935383472865,
        "lon": 67.48140114680734,
        "alt_km": 777.0662744362498,
        "timestamp": "2025-12-20T09:36:02.033513+00:00",
        "meta_object_name": "IRIDIUM 33 DEB",
        "meta_object_id": "1997-051BF",
        "meta_epoch": "2025-12-20T04:30:59.628960",
        "meta_mean_motion": 14.36060026,
        "meta_eccentricity": 0.0012941,
        "meta_inclination": 86.3824,
        "meta_ra_of_asc_node": 64.0937,
        "meta_arg_of_pericenter": 214.8028,
        "meta_mean_anomaly": 174.7554,
        "meta_ephemeris_type": 0,
        "meta_classification_type": "U",
        "meta_norad_cat_id": 33886,
        "meta_element_set_no": 999,
        "meta_rev_at_epoch": 88159,
        "meta_bstar": 0.00013723,
        "meta_mean_motion_dot": 4.19e-06,
        "meta_mean_motion_ddot": 0,
        "tle_line1": "1 33886U 97051BF  25354.18819015  .00000419  00000+0  13723-3 0  9994",
        "tle_line2": "2 33886  86.3824  64.0937 0012941 214.8028 174.7554 14.36060026881594"
      },
      "geometry": {
        "type": "Point",
        "coordinates": [
          67.48140114680734,
          43.78935383472865
        ]
      }
    },
    {
      "type": "Feature",
      "properties": {
        "norad_id": 33887,
        "name": "IRIDIUM 33 DEB",
        "group": "iridium-33-debris",
        "lat": 12.302153965783752,
        "lon": 0.8985775716914303,
        "alt_km": 772.7035141425467,
        "timestamp": "2025-12-20T09:36:02.033525+00:00",
        "meta_object_name": "IRIDIUM 33 DEB",
        "meta_object_id": "1997-051BG",
        "meta_epoch": "2025-12-20T01:28:45.668352",
        "meta_mean_motion": 14.37227129,
        "meta_eccentricity": 0.0005199,
        "meta_inclination": 86.3041,
        "meta_ra_of_asc_node": 0.2367,
        "meta_arg_of_pericenter": 196.9799,
        "meta_mean_anomaly": 225.7634,
        "meta_ephemeris_type": 0,
        "meta_classification_type": "U",
        "meta_norad_cat_id": 33887,
        "meta_element_set_no": 999,
        "meta_rev_at_epoch": 88270,
        "meta_bstar": 0.00010697,
        "meta_mean_motion_dot": 3.38e-06,
        "meta_mean_motion_ddot": 0,
        "tle_line1": "1 33887U 97051BG  25354.06163968  .00000338  00000+0  10697-3 0  9998",
        "tle_line2": "2 33887  86.3041   0.2367 0005199 196.9799 225.7634 14.37227129882707"
      },
      "geometry": {
        "type": "Point",
        "coordinates": [
          0.8985775716914303,
          12.302153965783752
        ]
      }
    },
    {
      "type": "Feature",
      "properties": {
        "norad_id": 33953,
        "name": "IRIDIUM 33 DEB",
        "group": "iridium-33-debris",
        "lat": 7.058952360506181,
        "lon": 50.90354119636759,
        "alt_km": 706.2977979883744,
        "timestamp": "2025-12-20T09:36:02.033536+00:00",
        "meta_object_name": "IRIDIUM 33 DEB",
        "meta_object_id": "1997-051BN",
        "meta_epoch": "2025-12-20T03:06:09.003168",
        "meta_mean_motion": 14.55388304,
        "meta_eccentricity": 0.0017954,
        "meta_inclination": 86.3841,
        "meta_ra_of_asc_node": 50.5724,
        "meta_arg_of_pericenter": 80.2831,
        "meta_mean_anomaly": 309.4365,
        "meta_ephemeris_type": 0,
        "meta_classification_type": "U",
        "meta_norad_cat_id": 33953,
        "meta_element_set_no": 999,
        "meta_rev_at_epoch": 88411,
        "meta_bstar": 0.00068976,
        "meta_mean_motion_dot": 3.021e-05,
        "meta_mean_motion_ddot": 0,
        "tle_line1": "1 33953U 97051BN  25354.12927087  .00003021  00000+0  68976-3 0  9994",
        "tle_line2": "2 33953  86.3841  50.5724 0017954  80.2831 309.4365 14.55388304884119"
      },
      "geometry": {
        "type": "Point",
        "coordinates": [
          50.90354119636759,
          7.058952360506181
        ]
      }
    },
    {
      "type": "Feature",
      "properties": {
        "norad_id": 33960,
        "name": "IRIDIUM 33 DEB",
        "group": "iridium-33-debris",
        "lat": -80.82731233109459,
        "lon": -98.0363176921282,
        "alt_km": 622.5457304951133,
        "timestamp": "2025-12-20T09:36:02.033547+00:00",
        "meta_object_name": "IRIDIUM 33 DEB",
        "meta_object_id": "1997-051BV",
        "meta_epoch": "2025-12-18T21:04:17.238720",
        "meta_mean_motion": 14.85489781,
        "meta_eccentricity": 0.00074649,
        "meta_inclination": 86.254,
        "meta_ra_of_asc_node": 286.6192,
        "meta_arg_of_pericenter": 52.1098,
        "meta_mean_anomaly": 12.0352,
        "meta_ephemeris_type": 0,
        "meta_classification_type": "U",
        "meta_norad_cat_id": 33960,
        "meta_element_set_no": 999,
        "meta_rev_at_epoch": 88958,
        "meta_bstar": 0.0022083229,
        "meta_mean_motion_dot": 0.0001912,
        "meta_mean_motion_ddot": 0,
        "tle_line1": "1 33960U 97051BV  25352.87797730  .00019120  00000+0  22083-2 0  9997",
        "tle_line2": "2 33960  86.2540 286.6192 0007464  52.1098  12.0352 14.85489781889584"
      },
      "geometry": {
        "type": "Point",
        "coordinates": [
          -98.0363176921282,
          -80.82731233109459
        ]
      }
    },
    {
      "type": "Feature",
      "properties": {
        "norad_id": 33966,
        "name": "IRIDIUM 33 DEB",
        "group": "iridium-33-debris",
        "lat": -25.04085440370203,
        "lon": 41.050330936623716,
        "alt_km": 738.3653596699414,
        "timestamp": "2025-12-20T09:36:02.033557+00:00",
        "meta_object_name": "IRIDIUM 33 DEB",
        "meta_object_id": "1997-051CB",
        "meta_epoch": "2025-12-20T03:11:01.811904",
        "meta_mean_motion": 14.49620401,
        "meta_eccentricity": 0.0008251,
        "meta_inclination": 86.3914,
        "meta_ra_of_asc_node": 42.8545,
        "meta_arg_of_pericenter": 164.7802,
        "meta_mean_anomaly": 215.846,
        "meta_ephemeris_type": 0,
        "meta_classification_type": "U",
        "meta_norad_cat_id": 33966,
        "meta_element_set_no": 999,
        "meta_rev_at_epoch": 88549,
        "meta_bstar": 0.00034833,
        "meta_mean_motion_dot": 1.358e-05,
        "meta_mean_motion_ddot": 0,
        "tle_line1": "1 33966U 97051CB  25354.13265986  .00001358  00000+0  34833-3 0  9998",
        "tle_line2": "2 33966  86.3914  42.8545 0008251 164.7802 215.8460 14.49620401885493"
      },
      "geometry": {
        "type": "Point",
        "coordinates": [
          41.050330936623716,
          -25.04085440370203
        ]
      }
    },
    {
      "type": "Feature",
      "properties": {
        "norad_id": 34071,
        "name": "IRIDIUM 33 DEB",
        "group": "iridium-33-debris",
        "lat": 37.617651332893125,
        "lon": 17.32207890148902,
        "alt_km": 720.0062838175054,
        "timestamp": "2025-12-20T09:36:02.033568+00:00",
        "meta_object_name": "IRIDIUM 33 DEB",
        "meta_object_id": "1997-051CE",
        "meta_epoch": "2025-12-20T02:48:00.186912",
        "meta_mean_motion": 14.49494127,
        "meta_eccentricity": 0.0009945,
        "meta_inclination": 86.3449,
        "meta_ra_of_asc_node": 14.6218,
        "meta_arg_of_pericenter": 87.7011,
        "meta_mean_anomaly": 272.5331,
        "meta_ephemeris_type": 0,
        "meta_classification_type": "U",
        "meta_norad_cat_id": 34071,
        "meta_element_set_no": 999,
        "meta_rev_at_epoch": 88441,
        "meta_bstar": 0.00040344,
        "meta_mean_motion_dot": 1.566e-05,
        "meta_mean_motion_ddot": 0,
        "tle_line1": "1 34071U 97051CE  25354.11666883  .00001566  00000+0  40344-3 0  9990",
        "tle_line2": "2 34071  86.3449  14.6218 0009945  87.7011 272.5331 14.49494127884417"
      },
      "geometry": {
        "type": "Point",
        "coordinates": [
          17.32207890148902,
          37.617651332893125
        ]
      }
    },
    {
      "type": "Feature",
      "properties": {
        "norad_id": 34077,
        "name": "IRIDIUM 33 DEB",
        "group": "iridium-33-debris",
        "lat": -55.76492980962806,
        "lon": 42.80284570434079,
        "alt_km": 682.3249135423766,
        "timestamp": "2025-12-20T09:36:02.033578+00:00",
        "meta_object_name": "IRIDIUM 33 DEB",
        "meta_object_id": "1997-051CL",
        "meta_epoch": "2025-12-20T03:25:48.307872",
        "meta_mean_motion": 14.64909698,
        "meta_eccentricity": 0.0009358,
        "meta_inclination": 86.3852,
        "meta_ra_of_asc_node": 48.2464,
        "meta_arg_of_pericenter": 15.7407,
        "meta_mean_anomaly": 13.5022,
        "meta_ephemeris_type": 0,
        "meta_classification_type": "U",
        "meta_norad_cat_id": 34077,
        "meta_element_set_no": 999,
        "meta_rev_at_epoch": 88441,
        "meta_bstar": 0.00069119,
        "meta_mean_motion_dot": 3.719e-05,
        "meta_mean_motion_ddot": 0,
        "tle_line1": "1 34077U 97051CL  25354.14292023  .00003719  00000+0  69119-3 0  9993",
        "tle_line2": "2 34077  86.3852  48.2464 0009358  15.7407  13.5022 14.64909698884416"
      },
      "geometry": {
        "type": "Point",
        "coordinates": [
          42.80284570434079,
          -55.76492980962806
        ]
      }
    }
  ]
}